[{"OBJECT_NAME":"GHGSAT-C4","OBJECT_ID":"2022-057Q","EPOCH":"2026-03-09T22:58:28.655904","MEAN_MOTION":15.3293316,"ECCENTRICITY":0.0007552,"INCLINATION":97.6357,"RA_OF_ASC_NODE":210.0193,"ARG_OF_PERICENTER":100.0033,"MEAN_ANOMALY":260.2061,"EPHEMERIS_TYPE":0,"CLASSIFICATION_TYPE":"U","NORAD_CAT_ID":52746,"ELEMENT_SET_NO":999,"REV_AT_EPOCH":21033,"BSTAR":0.00030289005,"MEAN_MOTION_DOT":9.562e-5,"MEAN_MOTION_DDOT":0},{"OBJECT_NAME":"STARLINK-32112","OBJECT_ID":"2024-120B","EPOCH":"2026-03-09T21:27:44.654112","MEAN_MOTION":15.30185965,"ECCENTRICITY":0.00012437,"INCLINATION":53.1616,"RA_OF_ASC_NODE":319.2489,"ARG_OF_PERICENTER":107.3197,"MEAN_ANOMALY":252.794,"EPHEMERIS_TYPE":0,"CLASSIFICATION_TYPE":"U","NORAD_CAT_ID":60136,"ELEMENT_SET_NO":999,"REV_AT_EPOCH":9648,"BSTAR":-3.4269808e-5,"MEAN_MOTION_DOT":-1.373e-5,"MEAN_MOTION_DDOT":0}]
